OBJECT_NAME,OBJECT_ID,EPOCH,MEAN_MOTION,ECCENTRICITY,INCLINATION,RA_OF_ASC_NODE,ARG_OF_PERICENTER,MEAN_ANOMALY,EPHEMERIS_TYPE,CLASSIFICATION_TYPE,NORAD_CAT_ID,ELEMENT_SET_NO,REV_AT_EPOCH,BSTAR,MEAN_MOTION_DOT,MEAN_MOTION_DDOT
STARLINK-36783,2026-034Z,2026-07-02T13:19:56.159904,15.34390849,.00026532,53.1601,27.7599,301.5574,58.5170,0,U,67873,999,2166,.90598212E-3,.3035E-3,0
STARLINK-36730,2026-034AA,2026-07-02T13:13:52.348512,15.34428175,.00003092,53.1595,27.7323,132.2105,227.8924,0,U,67874,999,2166,.10135228E-2,.34054E-3,0
STARLINK-36727,2026-034AB,2026-07-02T14:34:52.034880,15.31714294,.00004146,53.1592,29.4954,112.3237,247.7809,0,U,67875,999,2164,.44854308E-3,.13586E-3,0
STARLINK-36743,2026-034AC,2026-07-02T14:05:34.073088,15.30179842,.00011233,53.1586,30.7949,80.0495,280.0632,0,U,67876,999,2162,-.16117935E-3,-.5126E-4,0
STARLINK-36784,2026-034AD,2026-07-02T13:23:34.280160,15.29374231,.00019489,53.1592,31.3393,76.8780,283.2437,0,U,67877,999,2161,.6366757E-3,.18071E-3,0
STARLINK-36689,2026-034AE,2026-07-02T07:35:40.966368,15.30187904,.00025556,53.1599,31.9448,85.7439,274.3854,0,U,67878,999,2158,.98484681E-3,.28913E-3,0
STARLINK-36818,2026-035A,2026-07-02T08:08:17.292192,15.33390510,.00017352,97.2842,116.2514,110.0962,250.0468,0,U,67879,999,2155,.10439844E-2,.33722E-3,0
STARLINK-36821,2026-035B,2026-07-02T12:46:17.078304,15.33396950,.00017103,97.2839,116.4493,113.9838,246.1584,0,U,67880,999,2158,.76611284E-3,.24702E-3,0
STARLINK-36808,2026-035C,2026-07-02T08:35:41.410752,15.33406286,.00018777,97.2842,116.3825,86.9170,273.2288,0,U,67881,999,2156,-.2252702E-3,-.7332E-4,0
STARLINK-36817,2026-035D,2026-07-02T13:45:00.990432,15.33401681,.00023731,97.2842,116.5483,99.4187,260.7324,0,U,67882,999,2159,.73354951E-3,.2365E-3,0
STARLINK-36856,2026-035E,2026-07-02T09:07:01.130016,15.33430304,.0001673,97.2833,116.3504,117.7182,242.4231,0,U,67883,999,2156,-.10857913E-3,-.3577E-4,0
STARLINK-36842,2026-035F,2026-07-02T12:42:22.063392,15.33393154,.00017955,97.2847,116.4528,76.1962,283.9481,0,U,67884,999,2158,.88181015E-3,.28455E-3,0
STARLINK-36826,2026-035G,2026-07-02T09:18:45.980352,15.33427611,.0001933,97.2843,116.3380,109.0462,251.0990,0,U,67885,999,2156,-.15455582E-4,-.574E-5,0
STARLINK-36390,2026-035H,2026-07-02T09:30:30.720096,15.33411206,.0002353,97.2828,116.3294,79.0462,281.1046,0,U,67886,999,2156,.57029738E-3,.18363E-3,0
STARLINK-36368,2026-035J,2026-07-02T13:29:21.309216,15.33406306,.00019691,97.2842,116.5633,83.3325,276.8141,0,U,67887,999,2159,.11527246E-2,.37279E-3,0
STARLINK-36801,2026-035K,2026-07-02T13:33:16.051968,15.33419988,.00018938,97.2842,116.5605,85.6196,274.5263,0,U,67888,999,2159,.35569654E-3,.11417E-3,0
STARLINK-36372,2026-035L,2026-07-02T13:41:06.032544,15.33406899,.00016476,97.2837,116.5526,87.4561,272.6870,0,U,67889,999,2159,.66781957E-3,.21521E-3,0
STARLINK-36363,2026-035M,2026-07-02T09:22:40.634112,15.33415665,.00012378,97.2861,116.3347,133.8455,226.2890,0,U,67890,999,2156,-.2293298E-3,-.7465E-4,0
STARLINK-36816,2026-035N,2026-07-02T12:51:59.150592,15.33398538,.0001566,97.2834,115.5352,116.1233,244.0171,0,U,67891,999,2152,.71566384E-3,.23066E-3,0
STARLINK-36813,2026-035P,2026-07-02T12:54:06.776352,15.33397291,.00016642,97.2837,116.5971,115.2271,244.9145,0,U,67892,999,2159,.81455562E-3,.26274E-3,0
STARLINK-36803,2026-035Q,2026-07-02T13:05:51.410688,15.33397723,.00014525,97.2837,116.5828,89.9456,270.1953,0,U,67893,999,2159,.71484915E-3,.23039E-3,0
STARLINK-36846,2026-035R,2026-07-02T09:26:37.073760,15.33430002,.00018021,97.2838,116.3321,92.9820,267.1629,0,U,67894,999,2156,.53162386E-3,.17119E-3,0
STARLINK-36866,2026-035S,2026-07-02T09:10:56.056800,15.33405082,.00017875,97.2849,116.3483,89.5770,270.5678,0,U,67895,999,2156,-.4864573E-3,-.15728E-3,0
STARLINK-36877,2026-035T,2026-07-02T13:13:40.693152,15.33390920,.00019337,97.2831,116.5795,110.7196,249.4254,0,U,67896,999,2159,.58466863E-3,.18816E-3,0
STARLINK-36870,2026-035U,2026-07-02T13:21:31.837536,15.33422565,.00017513,97.2837,116.5729,90.2797,269.8646,0,U,67897,999,2159,.12846122E-2,.41597E-3,0
STARLINK-36810,2026-035V,2026-07-02T13:37:11.023680,15.33402086,.0001958,97.2835,116.5570,107.3706,252.7751,0,U,67898,999,2159,.83249957E-3,.26861E-3,0
STARLINK-36878,2026-035W,2026-07-02T12:58:01.595136,15.33396035,.00013683,97.2836,116.5909,87.1723,272.9676,0,U,67899,999,2159,.71686039E-3,.23103E-3,0
STARLINK-36361,2026-035X,2026-07-02T13:01:56.626464,15.33398466,.00016629,97.2835,116.5887,114.1129,246.0288,0,U,67900,999,2159,.83952546E-3,.27086E-3,0
STARLINK-36336,2026-035Y,2026-07-02T13:25:26.907744,15.33429926,.00018969,97.2837,116.5659,99.2099,260.9358,0,U,67901,999,2159,.86742876E-3,.2802E-3,0
STARLINK-36876,2026-035Z,2026-07-02T13:09:46.407456,15.33402212,.00014533,97.2825,116.5835,120.9954,239.1431,0,U,67902,999,2159,.67174679E-3,.21645E-3,0
