STARLINK-36783          
1 67873U 26034Z   26183.55551111  .00030350  00000+0  90598-3 0  9994
2 67873  53.1601  27.7599 0002653 301.5574  58.5170 15.34390849 21666
STARLINK-36730          
1 67874U 26034AA  26183.55130033  .00034054  00000+0  10135-2 0  9994
2 67874  53.1595  27.7323 0000309 132.2105 227.8924 15.34428175 21661
STARLINK-36727          
1 67875U 26034AB  26183.60754670  .00013586  00000+0  44854-3 0  9993
2 67875  53.1592  29.4954 0000414 112.3237 247.7809 15.31714294 21648
STARLINK-36743          
1 67876U 26034AC  26183.58719992 -.00005126  00000+0 -16118-3 0  9994
2 67876  53.1586  30.7949 0001123  80.0495 280.0632 15.30179842 21621
STARLINK-36784          
1 67877U 26034AD  26183.55803565  .00018071  00000+0  63668-3 0  9995
2 67877  53.1592  31.3393 0001948  76.8780 283.2437 15.29374231 21618
STARLINK-36689          
1 67878U 26034AE  26183.31644637  .00028913  00000+0  98485-3 0  9994
2 67878  53.1599  31.9448 0002555  85.7439 274.3854 15.30187904 21589
STARLINK-36818          
1 67879U 26035A   26183.33908903  .00033722  00000+0  10440-2 0  9995
2 67879  97.2842 116.2514 0001735 110.0962 250.0468 15.33390510 21554
STARLINK-36821          
1 67880U 26035B   26183.53214211  .00024702  00000+0  76611-3 0  9992
2 67880  97.2839 116.4493 0001710 113.9838 246.1584 15.33396950 21589
STARLINK-36808          
1 67881U 26035C   26183.35811818 -.00007332  00000+0 -22527-3 0  9998
2 67881  97.2842 116.3825 0001877  86.9170 273.2288 15.33406286 21568
STARLINK-36817          
1 67882U 26035D   26183.57292813  .00023650  00000+0  73355-3 0  9995
2 67882  97.2842 116.5483 0002373  99.4187 260.7324 15.33401681 21599
STARLINK-36856          
1 67883U 26035E   26183.37987419 -.00003577  00000+0 -10858-3 0  9994
2 67883  97.2833 116.3504 0001673 117.7182 242.4231 15.33430304 21568
STARLINK-36842          
1 67884U 26035F   26183.52942203  .00028455  00000+0  88181-3 0  9998
2 67884  97.2847 116.4528 0001795  76.1962 283.9481 15.33393154 21580
STARLINK-36826          
1 67885U 26035G   26183.38803218 -.00000574  00000+0 -15456-4 0  9995
2 67885  97.2843 116.3380 0001933 109.0462 251.0990 15.33427611 21562
STARLINK-36390          
1 67886U 26035H   26183.39618889  .00018363  00000+0  57030-3 0  9991
2 67886  97.2828 116.3294 0002353  79.0462 281.1046 15.33411206 21562
STARLINK-36368          
1 67887U 26035J   26183.56205219  .00037279  00000+0  11527-2 0  9997
2 67887  97.2842 116.5633 0001969  83.3325 276.8141 15.33406306 21591
STARLINK-36801          
1 67888U 26035K   26183.56476912  .00011417  00000+0  35570-3 0  9999
2 67888  97.2842 116.5605 0001893  85.6196 274.5263 15.33419988 21598
STARLINK-36372          
1 67889U 26035L   26183.57020871  .00021521  00000+0  66782-3 0  9996
2 67889  97.2837 116.5526 0001647  87.4561 272.6870 15.33406899 21598
STARLINK-36363          
1 67890U 26035M   26183.39074808 -.00007465  00000+0 -22933-3 0  9990
2 67890  97.2861 116.3347 0001237 133.8455 226.2890 15.33415665 21564
STARLINK-36816          
1 67891U 26035N   26183.53610128  .00023066  00000+0  71566-3 0  9997
2 67891  97.2834 115.5352 0001566 116.1233 244.0171 15.33398538 21520
STARLINK-36813          
1 67892U 26035P   26183.53757843  .00026274  00000+0  81456-3 0  9997
2 67892  97.2837 116.5971 0001664 115.2271 244.9145 15.33397291 21595
STARLINK-36803          
1 67893U 26035Q   26183.54573392  .00023039  00000+0  71485-3 0  9991
2 67893  97.2837 116.5828 0001452  89.9456 270.1953 15.33397723 21592
STARLINK-36846          
1 67894U 26035R   26183.39348465  .00017119  00000+0  53162-3 0  9990
2 67894  97.2838 116.3321 0001802  92.9820 267.1629 15.33430002 21569
STARLINK-36866          
1 67895U 26035S   26183.38259325 -.00015728  00000+0 -48646-3 0  9993
2 67895  97.2849 116.3483 0001787  89.5770 270.5678 15.33405082 21561
STARLINK-36877          
1 67896U 26035T   26183.55116543  .00018816  00000+0  58467-3 0  9998
2 67896  97.2831 116.5795 0001933 110.7196 249.4254 15.33390920 21595
STARLINK-36870          
1 67897U 26035U   26183.55661849  .00041597  00000+0  12846-2 0  9995
2 67897  97.2837 116.5729 0001751  90.2797 269.8646 15.33422565 21598
STARLINK-36810          
1 67898U 26035V   26183.56748870  .00026861  00000+0  83250-3 0  9992
2 67898  97.2835 116.5570 0001958 107.3706 252.7751 15.33402086 21594
STARLINK-36878          
1 67899U 26035W   26183.54029624  .00023103  00000+0  71686-3 0  9996
2 67899  97.2836 116.5909 0001368  87.1723 272.9676 15.33396035 21597
STARLINK-36361          
1 67900U 26035X   26183.54301651  .00027086  00000+0  83953-3 0  9996
2 67900  97.2835 116.5887 0001662 114.1129 246.0288 15.33398466 21593
STARLINK-36336          
1 67901U 26035Y   26183.55933921  .00028020  00000+0  86743-3 0  9998
2 67901  97.2837 116.5659 0001896  99.2099 260.9358 15.33429926 21590
STARLINK-36876          
1 67902U 26035Z   26183.54845379  .00021645  00000+0  67175-3 0  9991
2 67902  97.2825 116.5835 0001453 120.9954 239.1431 15.33402212 21594
